[{"OBJECT_NAME":"STARLINK-34799","OBJECT_ID":"2025-195Q","EPOCH":"2026-03-09T17:11:12.263424","MEAN_MOTION":15.30206661,"ECCENTRICITY":8.149e-5,"INCLINATION":53.1611,"RA_OF_ASC_NODE":258.3469,"ARG_OF_PERICENTER":123.0217,"MEAN_ANOMALY":237.0862,"EPHEMERIS_TYPE":0,"CLASSIFICATION_TYPE":"U","NORAD_CAT_ID":65472,"ELEMENT_SET_NO":999,"REV_AT_EPOCH":2997,"BSTAR":0.00083472452,"MEAN_MOTION_DOT":0.00024449,"MEAN_MOTION_DDOT":0},{"OBJECT_NAME":"CZ-6A DEB","OBJECT_ID":"2022-151SD","EPOCH":"2026-03-09T21:25:15.700512","MEAN_MOTION":15.24469357,"ECCENTRICITY":0.00248717,"INCLINATION":98.6538,"RA_OF_ASC_NODE":157.5128,"ARG_OF_PERICENTER":174.047,"MEAN_ANOMALY":186.1065,"EPHEMERIS_TYPE":0,"CLASSIFICATION_TYPE":"U","NORAD_CAT_ID":54940,"ELEMENT_SET_NO":999,"REV_AT_EPOCH":17680,"BSTAR":0.0087519903,"MEAN_MOTION_DOT":0.00223015,"MEAN_MOTION_DDOT":0}]
